{
  "links": {
    "next": "https://api.nasa.gov/neo/rest/v1/feed?start_date=2017-08-13&end_date=2017-08-13&detailed=true&api_key=DEMO_KEY",
    "prev": "https://api.nasa.gov/neo/rest/v1/feed?start_date=2017-08-11&end_date=2017-08-11&detailed=true&api_key=DEMO_KEY",
    "self": "https://api.nasa.gov/neo/rest/v1/feed?start_date=2017-08-12&end_date=2017-08-12&detailed=true&api_key=DEMO_KEY"
  },
  "element_count": 8,
  "near_earth_objects": {
    "2017-08-12": [
      {
        "links": {
          "self": "https://api.nasa.gov/neo/rest/v1/neo/2448724?api_key=DEMO_KEY"
        },
        "neo_reference_id": "2448724",
        "name": "448724 (2011 BB45)",
        "nasa_jpl_url": "http://ssd.jpl.nasa.gov/sbdb.cgi?sstr=2448724",
        "absolute_magnitude_h": 19.4,
        "estimated_diameter": {
          "kilometers": {
            "estimated_diameter_min": 0.3503926411,
            "estimated_diameter_max": 0.7835017643
          },
          "meters": {
            "estimated_diameter_min": 350.3926411083,
            "estimated_diameter_max": 783.5017643338
          },
          "miles": {
            "estimated_diameter_min": 0.2177238258,
            "estimated_diameter_max": 0.4868452748
          },
          "feet": {
            "estimated_diameter_min": 1149.5821926537,
            "estimated_diameter_max": 2570.543928497
          }
        },
        "is_potentially_hazardous_asteroid": false,
        "close_approach_data": [
          {
            "close_approach_date": "2017-08-12",
            "epoch_date_close_approach": 1502521200000,
            "relative_velocity": {
              "kilometers_per_second": "13.7927295465",
              "kilometers_per_hour": "49653.8263673766",
              "miles_per_hour": "30852.9567225513"
            },
            "miss_distance": {
              "astronomical": "0.292876139",
              "lunar": "113.9288101196",
              "kilometers": "43813644",
              "miles": "27224536"
            },
            "orbiting_body": "Earth"
          }
        ],
        "orbital_data": {
          "orbit_id": "26",
          "orbit_determination_date": "2017-04-06 09:20:16",
          "orbit_uncertainty": "2",
          "minimum_orbit_intersection": ".0588757",
          "jupiter_tisserand_invariant": "4.366",
          "epoch_osculation": "2458000.5",
          "eccentricity": ".3046836046758031",
          "semi_major_axis": "1.541503274814626",
          "inclination": "17.11946610279624",
          "ascending_node_longitude": "304.8600228535404",
          "orbital_period": "699.061049110933",
          "perihelion_distance": "1.071832500424551",
          "perihelion_argument": "351.2479910830277",
          "aphelion_distance": "2.011174049204701",
          "perihelion_time": "2457970.303582668912",
          "mean_anomaly": "15.55044477591324",
          "mean_motion": ".5149764823227508",
          "equinox": "J2000"
        }
      },
      {
        "links": {
          "self": "https://api.nasa.gov/neo/rest/v1/neo/3263448?api_key=DEMO_KEY"
        },
        "neo_reference_id": "3263448",
        "name": "(2004 XK14)",
        "nasa_jpl_url": "http://ssd.jpl.nasa.gov/sbdb.cgi?sstr=3263448",
        "absolute_magnitude_h": 22.4,
        "estimated_diameter": {
          "kilometers": {
            "estimated_diameter_min": 0.0880146521,
            "estimated_diameter_max": 0.1968067451
          },
          "meters": {
            "estimated_diameter_min": 88.0146520901,
            "estimated_diameter_max": 196.8067450894
          },
          "miles": {
            "estimated_diameter_min": 0.0546897524,
            "estimated_diameter_max": 0.122290004
          },
          "feet": {
            "estimated_diameter_min": 288.7619911632,
            "estimated_diameter_max": 645.6914415591
          }
        },
        "is_potentially_hazardous_asteroid": false,
        "close_approach_data": [
          {
            "close_approach_date": "2017-08-12",
            "epoch_date_close_approach": 1502521200000,
            "relative_velocity": {
              "kilometers_per_second": "14.0445773971",
              "kilometers_per_hour": "50560.4786295013",
              "miles_per_hour": "31416.3151795365"
            },
            "miss_distance": {
              "astronomical": "0.4777824306",
              "lunar": "185.8573608398",
              "kilometers": "71475232",
              "miles": "44412652"
            },
            "orbiting_body": "Earth"
          }
        ],
        "orbital_data": {
          "orbit_id": "28",
          "orbit_determination_date": "2017-04-06 09:11:48",
          "orbit_uncertainty": "0",
          "minimum_orbit_intersection": ".0249519",
          "jupiter_tisserand_invariant": "7.633",
          "epoch_osculation": "2458000.5",
          "eccentricity": ".433781700917776",
          "semi_major_axis": ".7486465684022529",
          "inclination": "3.098319488479378",
          "ascending_node_longitude": "306.8789314634299",
          "orbital_period": "236.5994246631876",
          "perihelion_distance": ".4238973865744675",
          "perihelion_argument": "303.087422530393",
          "aphelion_distance": "1.073395750230038",
          "perihelion_time": "2457952.122124562677",
          "mean_anomaly": "73.60979504590431",
          "mean_motion": "1.521559067662484",
          "equinox": "J2000"
        }
      },
      {
        "links": {
          "self": "https://api.nasa.gov/neo/rest/v1/neo/3274304?api_key=DEMO_KEY"
        },
        "neo_reference_id": "3274304",
        "name": "(2005 EY169)",
        "nasa_jpl_url": "http://ssd.jpl.nasa.gov/sbdb.cgi?sstr=3274304",
        "absolute_magnitude_h": 22.2,
        "estimated_diameter": {
          "kilometers": {
            "estimated_diameter_min": 0.096506147,
            "estimated_diameter_max": 0.2157943048
          },
          "meters": {
            "estimated_diameter_min": 96.5061469579,
            "estimated_diameter_max": 215.7943048444
          },
          "miles": {
            "estimated_diameter_min": 0.059966121,
            "estimated_diameter_max": 0.134088323
          },
          "feet": {
            "estimated_diameter_min": 316.6212271853,
            "estimated_diameter_max": 707.9865871058
          }
        },
        "is_potentially_hazardous_asteroid": false,
        "close_approach_data": [
          {
            "close_approach_date": "2017-08-12",
            "epoch_date_close_approach": 1502521200000,
            "relative_velocity": {
              "kilometers_per_second": "10.8677778436",
              "kilometers_per_hour": "39124.0002370187",
              "miles_per_hour": "24310.1322583853"
            },
            "miss_distance": {
              "astronomical": "0.3633308608",
              "lunar": "141.3357086182",
              "kilometers": "54353524",
              "miles": "33773716"
            },
            "orbiting_body": "Earth"
          }
        ],
        "orbital_data": {
          "orbit_id": "28",
          "orbit_determination_date": "2017-07-31 11:21:30",
          "orbit_uncertainty": "0",
          "minimum_orbit_intersection": ".0696479",
          "jupiter_tisserand_invariant": "4.889",
          "epoch_osculation": "2455353.5",
          "eccentricity": ".2330986549811902",
          "semi_major_axis": "1.308067523980838",
          "inclination": "20.89051623727846",
          "ascending_node_longitude": "346.9778286309497",
          "orbital_period": "546.4414963367311",
          "perihelion_distance": "1.003158743516329",
          "perihelion_argument": "227.5148042279464",
          "aphelion_distance": "1.612976304445347",
          "perihelion_time": "2455126.076234872161",
          "mean_anomaly": "149.8285836542145",
          "mean_motion": ".6588079463462981",
          "equinox": "J2000"
        }
      }
    ]
  }
}
